BEIDOU-2 IGSO-1 (C06)   
1 36828U 10036A   26075.81989483 -.00000131  00000+0  00000+0 0  9991
2 36828  54.2919 163.7991 0054802 219.5488 190.2659  1.00249641 57170
BEIDOU-2 G4 (C04)       
1 37210U 10057A   26076.24226429 -.00000109  00000+0  00000+0 0  9997
2 37210   3.4168  69.4664 0008003 213.3629 139.2375  1.00272244 56361
BEIDOU-2 IGSO-2 (C07)   
1 37256U 10068A   26075.82970703 -.00000158  00000+0  00000+0 0  9997
2 37256  47.7113 272.9728 0047552 212.9355  93.5019  1.00255441 55868
BEIDOU-2 IGSO-3 (C08)   
1 37384U 11013A   26075.84191642 -.00000155  00000+0  00000+0 0  9996
2 37384  62.2875  41.0240 0034756 190.0150 353.3121  1.00290880 54734
BEIDOU-2 IGSO-4 (C09)   
1 37763U 11038A   26074.66151442 -.00000088  00000+0  00000+0 0  9992
2 37763  54.5888 166.5204 0155524 231.1030 107.8479  1.00264141 53702
BEIDOU-2 IGSO-5 (C10)   
1 37948U 11073A   26075.87734162 -.00000094  00000+0  00000+0 0  9993
2 37948  47.8471 272.6846 0109031 220.9437  91.6810  1.00269656 52209
BEIDOU-2 G5 (C05)       
1 38091U 12008A   26076.21864434  .00000060  00000+0  00000+0 0  9999
2 38091   3.3426  70.2279 0013576 257.6777 344.3189  1.00270547 51443
BEIDOU-2 M3 (C11)       
1 38250U 12018A   26073.14721841 -.00000025  00000+0  00000+0 0  9992
2 38250  55.8387 308.0798 0021028 279.8412  79.9804  1.86230226 94175
BEIDOU-2 M4 (C12)       
1 38251U 12018B   26074.15330723 -.00000019  00000+0  00000+0 0  9993
2 38251  55.7384 307.2675 0012180 287.3943  72.5336  1.86229933 94193
BEIDOU-2 M6 (C14)       
1 38775U 12050B   26075.47430128  .00000023  00000+0  00000+0 0  9990
2 38775  56.4646  65.9581 0014199 342.8645  17.1070  1.86230939 91583
BEIDOU-2 G6 (C02)       
1 38953U 12059A   26076.08101709 -.00000172  00000+0  00000+0 0  9991
2 38953   4.1864  74.5036 0010541 307.2711 266.0308  1.00275169 48985
BEIDOU-3S IGSO-1S (C31) 
1 40549U 15019A   26075.58400502 -.00000138  00000+0  00000+0 0  9993
2 40549  49.3686 296.5774 0035948 190.4557 353.7501  1.00271269 40141
BEIDOU-3S M2S (C58)     
1 40748U 15037A   26074.89414427 -.00000015  00000+0  00000+0 0  9992
2 40748  54.9529 305.2596 0008424 278.4084  81.5573  1.86232225 72380
BEIDOU-3S M1S (C57)     
1 40749U 15037B   26075.64986909 -.00000014  00000+0  00000+0 0  9995
2 40749  54.9480 305.2212 0004637  36.7784 323.3150  1.86254680 72406
BEIDOU-2 IGSO-6 (C13)   
1 41434U 16021A   26075.86902463 -.00000135  00000+0  00000+0 0  9992
2 41434  60.1040  38.9564 0059205 233.2901 310.8173  1.00276097 36559
BEIDOU-2 G7 (C03)       
1 41586U 16037A   26076.30002468 -.00000352  00000+0  00000+0 0  9994
2 41586   1.4913  68.3452 0007700 347.2027 337.9043  1.00273815  5967
BEIDOU-3 M1 (C19)       
1 43001U 17069A   26075.23972936  .00000024  00000+0  00000+0 0  9996
2 43001  56.6118  66.1446 0012471 310.6552  49.2568  1.86231291 56874
BEIDOU-3 M2 (C20)       
1 43002U 17069B   26074.64129586  .00000024  00000+0  00000+0 0  9996
2 43002  56.6103  66.1997 0009871 329.6496  30.3152  1.86230978 56856
BEIDOU-3 M7 (C27)       
1 43107U 18003A   26074.92009756 -.00000017  00000+0  00000+0 0  9991
2 43107  54.4104 305.5685 0004847  71.9317 288.1816  1.86232720 55610
BEIDOU-3 M8 (C28)       
1 43108U 18003B   26074.86575014 -.00000017  00000+0  00000+0 0  9990
2 43108  54.4033 305.5527 0002884 295.5451  64.4855  1.86231232 55625
BEIDOU-3 M4 (C22)       
1 43207U 18018A   26074.77104337  .00000024  00000+0  00000+0 0  9999
2 43207  56.5703  66.2272 0007030 351.0447   8.9646  1.86231156 55009
BEIDOU-3 M3 (C21)       
1 43208U 18018B   26075.37444012  .00000024  00000+0  00000+0 0  9994
2 43208  56.5704  66.2113 0010097 320.4745  39.4720  1.86231178 55010
BEIDOU-3 M9 (C29)       
1 43245U 18029A   26075.05475697 -.00000012  00000+0  00000+0 0  9993
2 43245  54.2780 303.2072 0000939  29.0343 331.0307  1.86228401 54160
BEIDOU-3 M10 (C30)      
1 43246U 18029B   26075.52654003 -.00000012  00000+0  00000+0 0  9996
2 43246  54.2749 303.2175 0005199  26.3275 333.7589  1.86229372 54155
BEIDOU-2 IGSO-7 (C16)   
1 43539U 18057A   26075.82614687 -.00000133  00000+0  00000+0 0  9993
2 43539  55.1851 163.8674 0101282 236.8998 183.8494  1.00280014 28200
BEIDOU-3 M5 (C23)       
1 43581U 18062A   26075.75065793  .00000001  00000+0  00000+0 0  9999
2 43581  54.0870 185.4469 0002582 299.4222  60.5388  1.86228980 51911
BEIDOU-3 M6 (C24)       
1 43582U 18062B   26075.07668144 -.00000004  00000+0  00000+0 0  9998
2 43582  54.0868 185.4588 0005831  40.9453 319.0834  1.86227898 51900
BEIDOU-3 M12 (C26)      
1 43602U 18067A   26074.47814054 -.00000009  00000+0  00000+0 0  9997
2 43602  54.1821 184.2178 0008481  39.2265 320.8211  1.86227956 51376
BEIDOU-3 M11 (C25)      
1 43603U 18067B   26075.68684609  .00000001  00000+0  00000+0 0  9994
2 43603  54.1790 184.1405 0004859  31.7163 328.3021  1.86227355 51424
BEIDOU-3 M13 (C32)      
1 43622U 18072A   26075.64255759  .00000022  00000+0  00000+0 0  9990
2 43622  56.5444  65.7114 0009057 308.8074  51.1302  1.86231332 50930
BEIDOU-3 M14 (C33)      
1 43623U 18072B   26075.50801789  .00000022  00000+0  00000+0 0  9996
2 43623  56.5462  65.7104 0006603 330.2962  29.6852  1.86231253 50920
BEIDOU-3 M16 (C35)      
1 43647U 18078A   26074.05390176 -.00000015  00000+0  00000+0 0  9993
2 43647  54.1747 303.2868 0008460  32.7335 327.3774  1.86232398 50409
BEIDOU-3 M15 (C34)      
1 43648U 18078B   26074.72014537 -.00000013  00000+0  00000+0 0  9990
2 43648  54.1705 303.2647 0005434  40.5213 319.5785  1.86232511 50434
BEIDOU-3 G1 (C59)       
1 43683U 18085A   26072.31265080 -.00000279  00000+0  00000+0 0  9995
2 43683   2.8312 100.0786 0002095   8.4898 314.8220  1.00265903 27091
BEIDOU-3 M17 (C36)      
1 43706U 18093A   26075.16166927 -.00000004  00000+0  00000+0 0  9992
2 43706  54.1705 185.4525 0007403 294.8959 253.9308  1.86228405 49801
BEIDOU-3 M18 (C37)      
1 43707U 18093B   26075.81627451  .00000002  00000+0  00000+0 0  9996
2 43707  54.1715 185.4223 0006111 336.5568  23.4025  1.86226821 49810
BEIDOU-3 IGSO-1 (C38)   
1 44204U 19023A   26076.30158469 -.00000194  00000+0  00000+0 0  9999
2 44204  58.5722  38.5952 0025407 236.0997 127.5907  1.00267022  6299
BEIDOU-2 G8 (C01)       
1 44231U 19027A   26076.30695803 -.00000246  00000+0  00000+0 0  9999
2 44231   1.4235  74.2659 0011451 275.3683  80.2662  1.00272712 25159
BEIDOU-3 IGSO-2 (C39)   
1 44337U 19035A   26057.68879618 -.00000176  00000+0  00000+0 0  9995
2 44337  55.2338 159.8353 0038734 206.4752 153.7223  1.00247364 24561
BEIDOU-3 M24 (C46)      
1 44542U 19061A   26074.81218622 -.00000006  00000+0  00000+0 0  9990
2 44542  54.3984 185.8765 0008412  18.1846 341.8291  1.86229126 44055
BEIDOU-3 M23 (C45)      
1 44543U 19061B   26073.81282775 -.00000011  00000+0  00000+0 0  9996
2 44543  54.3971 185.8787 0004914  10.0164 312.1674  1.86227424 44036
BEIDOU-3 IGSO-3 (C40)   
1 44709U 19073A   26069.98346678 -.00000143  00000+0  00000+0 0  9995
2 44709  54.9673 281.9576 0040728 188.7089 171.2538  1.00267242 23477
BEIDOU-3 M22 (C44)      
1 44793U 19078A   26075.18830765 -.00000013  00000+0  00000+0 0  9993
2 44793  54.0196 303.1011 0007422  38.0881 322.0239  1.86232319 42918
BEIDOU-3 M21 (C43)      
1 44794U 19078B   26075.86507315 -.00000012  00000+0  00000+0 0  9990
2 44794  53.9928 303.0404 0005363  31.8509 328.2410  1.86227986 42930
BEIDOU-3 M19 (C41)      
1 44864U 19090A   26076.10727720  .00000021  00000+0  00000+0 0  9993
2 44864  56.4792  65.8326 0020410 292.1173  66.9369  1.86231664 42511
BEIDOU-3 M20 (C42)      
1 44865U 19090B   26073.30245928  .00000019  00000+0  00000+0 0  9995
2 44865  56.4780  65.9600 0017869 303.3279  64.8469  1.86231612 42455
BEIDOU-3 G2 (C60)       
1 45344U 20017A   26076.15147738 -.00000138  00000+0  00000+0 0  9998
2 45344   2.6782  45.7900 0002715 325.2899 298.2320  1.00271921 22334
BEIDOU-3 G3 (C61)       
1 45807U 20040A   26076.30002468 -.00000351  00000+0  00000+0 0  9992
2 45807   2.2197  67.1550 0004857 326.1848   0.0490  1.00269059 21140
BEIDOU-3 G4 (C62)       
1 56564U 23066A   26072.17398353 -.00000111  00000+0  00000+0 0  9991
2 56564   0.6336 312.1088 0002647 153.4351 287.9442  1.00272296 10433
BEIDOU-3 M28 (C50)      
1 58654U 23207A   26075.94249714  .00000019  00000+0  00000+0 0  9990
2 58654  55.6725  65.4133 0004991 307.1364  52.8353  1.86229755 15129
BEIDOU-3 M26 (C48)      
1 58655U 23207B   26075.73998216  .00000019  00000+0  00000+0 0  9996
2 58655  55.6742  65.4064 0005706 292.2017  67.7558  1.86229663 15104
BEIDOU-3 M25 (C47)      
1 61186U 24168B   26074.70761356 -.00000017  00000+0  00000+0 0  9994
2 61186  54.5560 305.4923 0004124 319.2855 185.5687  1.86230215 10042
BEIDOU-3 M27 (C49)      
1 61187U 24168C   26075.09678812 -.00000016  00000+0  00000+0 0  9991
2 61187  54.5512 305.4620 0002923  23.0675 157.7030  1.86230338  7527
